[{"OBJECT_NAME":"CONNECTA IOT-1","OBJECT_ID":"2024-149E","EPOCH":"2026-03-09T18:22:27.950592","MEAN_MOTION":15.22912788,"ECCENTRICITY":4.716e-5,"INCLINATION":97.3815,"RA_OF_ASC_NODE":146.767,"ARG_OF_PERICENTER":228.7595,"MEAN_ANOMALY":131.3601,"EPHEMERIS_TYPE":0,"CLASSIFICATION_TYPE":"U","NORAD_CAT_ID":60472,"ELEMENT_SET_NO":999,"REV_AT_EPOCH":8666,"BSTAR":0.00025344634,"MEAN_MOTION_DOT":5.875e-5,"MEAN_MOTION_DDOT":0},{"OBJECT_NAME":"TOMORROW-S5","OBJECT_ID":"2025-052AA","EPOCH":"2026-03-09T22:18:56.653632","MEAN_MOTION":15.21504663,"ECCENTRICITY":0.0008039,"INCLINATION":97.4097,"RA_OF_ASC_NODE":323.1718,"ARG_OF_PERICENTER":130.4519,"MEAN_ANOMALY":229.7419,"EPHEMERIS_TYPE":0,"CLASSIFICATION_TYPE":"U","NORAD_CAT_ID":63234,"ELEMENT_SET_NO":999,"REV_AT_EPOCH":5474,"BSTAR":0.00063877552,"MEAN_MOTION_DOT":0.00014334,"MEAN_MOTION_DDOT":0}]
